     3.00           N: GNSS NAV DATA    E: Galileo          RINEX VERSION / TYPE
PREC2NAV                                20121215 063252 UTC PGM / RUN BY / DATE 
SOURCE: data/tum%W%D.sp3                                    COMMENT             
                                                            END OF HEADER       
E11 2012 10 27  0  0  0  .120176056680E-02  .827338974359E-10  .000000000000E+00
      .100000000000E+01 -.599324048044E+02  .364683810894E-08 -.309030670908E+01
     -.287589971681E-05  .147696540855E-03  .425334125198E-05  .544060345392E+04
      .518400000000E+06 -.676172322605E-07  .156354136854E+01 -.147390751542E-06
      .955887012230E+00  .246513332458E+03  .138876632926E+01 -.596955707995E-08
     -.424012150282E-09  .000000000000E+00  .171100000000E+04  .000000000000E+00
      .240000000000E+01  .000000000000E+00  .000000000000E+00  .000000000000E+00
      .522000000000E+06  .000000000000E+00
E12 2012 10 27  0  0  0  .370562206720E-03  .852113692308E-10  .000000000000E+00
      .100000000000E+01 -.584817075015E+02  .372145447379E-08  .244214901364E+01
     -.277756269545E-05  .450864887021E-04  .410560667907E-05  .544059979723E+04
      .518400000000E+06  .319446228384E-06  .156351524538E+01  .954459287854E-07
      .955897986557E+00  .245328015736E+03 -.344009501714E+01 -.613675131096E-08
     -.453062046092E-09  .000000000000E+00  .171100000000E+04  .000000000000E+00
      .240000000000E+01  .000000000000E+00  .000000000000E+00  .000000000000E+00
      .522000000000E+06  .000000000000E+00
E11 2012 10 27  2  0  0  .120235587320E-02  .826468205128E-10  .000000000000E+00
      .200000000000E+01 -.543401800000E+02  .363221179202E-08 -.220126785764E+01
     -.254037229582E-05  .148170096764E-03  .405270019045E-05  .544060206376E+04
      .525600000000E+06 -.192046585568E-07  .156349738083E+01  .354842517295E-07
      .955884868245E+00  .248238938348E+03  .139236099864E+01 -.598057552118E-08
     -.283949701088E-09  .000000000000E+00  .171100000000E+04  .000000000000E+00
      .240000000000E+01  .000000000000E+00  .000000000000E+00  .000000000000E+00
      .529200000000E+06  .000000000000E+00
E12 2012 10 27  2  0  0  .371175074520E-03  .850691794872E-10  .000000000000E+00
      .200000000000E+01 -.530864557437E+02  .357984601997E-08 -.294083800699E+01
     -.236829539974E-05  .456926420764E-04  .417361009759E-05  .544059840138E+04
      .525600000000E+06 -.313289462623E-07  .156347071544E+01 -.477829229844E-08
      .955896939456E+00  .245562260641E+03  .283552802011E+01 -.594427326445E-08
     -.239621490285E-09  .000000000000E+00  .171100000000E+04  .000000000000E+00
      .240000000000E+01  .000000000000E+00  .000000000000E+00  .000000000000E+00
      .529200000000E+06  .000000000000E+00
E11 2012 10 27  4  0  0  .120295089040E-02  .826404358974E-10  .000000000000E+00
      .300000000000E+01 -.508301198497E+02  .359635780224E-08 -.130967151940E+01
     -.232182741212E-05  .148445149572E-03  .406471163466E-05  .544060163930E+04
      .532800000000E+06 -.164420020722E-07  .156345433886E+01 -.797209342899E-09
      .955883027147E+00  .249538884931E+03  .139339859667E+01 -.595196654815E-08
     -.270892127166E-09  .000000000000E+00  .171100000000E+04  .000000000000E+00
      .240000000000E+01  .000000000000E+00  .000000000000E+00  .000000000000E+00
      .536400000000E+06  .000000000000E+00
E12 2012 10 27  4  0  0  .371787615480E-03  .850744179487E-10  .000000000000E+00
      .300000000000E+01 -.493699748710E+02  .350488787095E-08 -.203569046043E+01
     -.226479903322E-05  .448126356012E-04  .399053111697E-05  .544060055665E+04
      .532800000000E+06 -.122699727358E-07  .156342807209E+01  .852878484545E-08
      .955895330086E+00  .252101309983E+03  .282301450823E+01 -.591991108094E-08
     -.244271682609E-09  .000000000000E+00  .171100000000E+04  .000000000000E+00
      .240000000000E+01  .000000000000E+00  .000000000000E+00  .000000000000E+00
      .536400000000E+06  .000000000000E+00
E11 2012 10 27  6  0  0  .120354599560E-02  .826685897436E-10  .000000000000E+00
      .400000000000E+01 -.484081644712E+02  .355056435252E-08 -.413186070289E+00
     -.225165374228E-05  .148697016394E-03  .391498664382E-05  .544060287673E+04
      .540000000000E+06 -.214253807843E-07  .156341169625E+01  .217685972266E-07
      .955881173159E+00  .253906634843E+03  .138954587796E+01 -.592594210223E-08
     -.284972305350E-09  .000000000000E+00  .171100000000E+04  .000000000000E+00
      .240000000000E+01  .000000000000E+00  .000000000000E+00  .000000000000E+00
      .543600000000E+06  .000000000000E+00
E12 2012 10 27  6  0  0  .372400302720E-03  .851135358974E-10  .000000000000E+00
      .400000000000E+01 -.546962668983E+02  .356334848317E-08 -.746158985563E+01
     -.246392919176E-05  .447296247441E-04  .365175501574E-05  .544059728021E+04
      .540000000000E+06 -.599720359850E-07  .156338602426E+01 -.468784753056E-07
      .955893465426E+00  .262020405148E+03  .285836251001E+01 -.589824882500E-08
     -.312532512002E-09  .000000000000E+00  .171100000000E+04  .000000000000E+00
      .240000000000E+01  .000000000000E+00  .000000000000E+00  .000000000000E+00
      .543600000000E+06  .000000000000E+00
E11 2012 10 27  8  0  0  .120414130240E-02  .826924871795E-10  .000000000000E+00
      .500000000000E+01 -.515300818850E+02  .361945491319E-08  .479958805810E+00
     -.237723984338E-05  .147032808220E-03  .351047532115E-05  .544059941583E+04
      .547200000000E+06 -.317633729375E-07  .156336951497E+01 -.515118571606E-07
      .955878951933E+00  .265142421652E+03  .138903438399E+01 -.592171733447E-08
     -.351149099839E-09  .000000000000E+00  .171100000000E+04  .000000000000E+00
      .240000000000E+01  .000000000000E+00  .000000000000E+00  .000000000000E+00
      .550800000000E+06  .000000000000E+00
E12 2012 10 27  8  0  0  .373013005360E-03  .850867230769E-10  .000000000000E+00
      .500000000000E+01 -.519312487527E+02  .368089170786E-08 -.298524543200E+00
     -.252213007108E-05  .443849552967E-04  .354566986194E-05  .544059595321E+04
      .547200000000E+06  .694329428528E-07  .156334410707E+01 -.327117836254E-07
      .955890486780E+00  .266417883066E+03  .287111846926E+01 -.597795598564E-08
     -.416469786457E-09  .000000000000E+00  .171100000000E+04  .000000000000E+00
      .240000000000E+01  .000000000000E+00  .000000000000E+00  .000000000000E+00
      .550800000000E+06  .000000000000E+00
E11 2012 10 27 10  0  0  .120473654120E-02  .826554615385E-10  .000000000000E+00
      .600000000000E+01 -.497120476570E+02  .370750080902E-08  .137373017870E+01
     -.246784488950E-05  .146774903694E-03  .343438445146E-05  .544059881066E+04
      .554400000000E+06  .359868344544E-07  .156332712026E+01 -.966692730970E-08
      .955875924906E+00  .266814148247E+03  .138789813789E+01 -.598119723002E-08
     -.407477153309E-09  .000000000000E+00  .171100000000E+04  .000000000000E+00
      .240000000000E+01  .000000000000E+00  .000000000000E+00  .000000000000E+00
      .558000000000E+06  .000000000000E+00
E12 2012 10 27 10  0  0  .373625579840E-03  .850722615385E-10  .000000000000E+00
      .600000000000E+01 -.527739334225E+02  .379539410261E-08  .596002236729E+00
     -.260843851538E-05  .443118749707E-04  .331374461366E-05  .544059578977E+04
      .554400000000E+06  .177938305159E-07  .156330089156E+01  .291792328951E-08
      .955887068536E+00  .265461724721E+03 -.341395637852E+01 -.604477759223E-08
     -.427333754900E-09  .000000000000E+00  .171100000000E+04  .000000000000E+00
      .240000000000E+01  .000000000000E+00  .000000000000E+00  .000000000000E+00
      .558000000000E+06  .000000000000E+00
E11 2012 10 27 12  0  0  .120533154600E-02  .826407948718E-10  .000000000000E+00
      .700000000000E+01 -.497537113944E+02  .382218551805E-08  .226777309578E+01
     -.243365069432E-05  .146814520568E-03  .323916756697E-05  .544059839253E+04
      .561600000000E+06 -.134447572346E-07  .156328378801E+01 -.247934483857E-07
      .955872633095E+00  .265148118942E+03 -.489669380590E+01 -.604585340406E-08
     -.402500978365E-09  .000000000000E+00  .171100000000E+04  .000000000000E+00
      .240000000000E+01  .000000000000E+00  .000000000000E+00  .000000000000E+00
      .565200000000E+06  .000000000000E+00
E12 2012 10 27 12  0  0  .374238199960E-03  .851142230769E-10  .000000000000E+00
      .700000000000E+01 -.462155672648E+02  .385193443695E-08  .146848868008E+01
     -.208463426532E-05  .446535904745E-04  .338076061457E-05  .544059776434E+04
      .561600000000E+06  .530030238525E-07  .156325698754E+01 -.254032903065E-07
      .955883918344E+00  .263256034632E+03 -.339380486282E+01 -.608097821991E-08
     -.396484304091E-09  .000000000000E+00  .171100000000E+04  .000000000000E+00
      .240000000000E+01  .000000000000E+00  .000000000000E+00  .000000000000E+00
      .565200000000E+06  .000000000000E+00
E11 2012 10 27 14  0  0  .120592667960E-02  .826605641026E-10  .000000000000E+00
      .800000000000E+01 -.430718583431E+02  .387954707612E-08 -.312548782873E+01
     -.191982756140E-05  .145825333079E-03  .345866275182E-05  .544060061178E+04
      .568800000000E+06  .774723692246E-07  .156323965023E+01 -.220261754631E-07
      .955869736249E+00  .261955986315E+03  .138920386526E+01 -.609021861380E-08
     -.338766036594E-09  .000000000000E+00  .171100000000E+04  .000000000000E+00
      .240000000000E+01  .000000000000E+00  .000000000000E+00  .000000000000E+00
      .572400000000E+06  .000000000000E+00
